{
  "type": "FeatureCollection",
  "features": [
    {
      "type": "Feature",
      "properties": {
        "norad_id": 29486,
        "name": "GPS BIIRM-2 (PRN 31)",
        "group": "gps-ops",
        "lat": -52.17128203998209,
        "lon": 44.93732393895612,
        "alt_km": 20449.336265450085,
        "timestamp": "2025-12-06T09:34:17.172585+00:00",
        "meta_object_name": "GPS BIIRM-2 (PRN 31)",
        "meta_object_id": "2006-042A",
        "meta_epoch": "2025-12-05T13:29:33.507168",
        "meta_mean_motion": 2.00554326,
        "meta_eccentricity": 0.01073593,
        "meta_inclination": 54.693,
        "meta_ra_of_asc_node": 159.0256,
        "meta_arg_of_pericenter": 51.7863,
        "meta_mean_anomaly": 320.1689,
        "meta_ephemeris_type": 0,
        "meta_classification_type": "U",
        "meta_norad_cat_id": 29486,
        "meta_element_set_no": 999,
        "meta_rev_at_epoch": 14051,
        "meta_bstar": 0,
        "meta_mean_motion_dot": 7.3e-07,
        "meta_mean_motion_ddot": 0,
        "tle_line1": "1 29486U 06042A   25339.56219337  .00000073  00000+0  00000+0 0  9997",
        "tle_line2": "2 29486  54.6930 159.0256 0107359  51.7863 320.1689  2.00554326140518"
      },
      "geometry": {
        "type": "Point",
        "coordinates": [
          44.93732393895612,
          -52.17128203998209
        ]
      }
    },
    {
      "type": "Feature",
      "properties": {
        "norad_id": 29601,
        "name": "GPS BIIRM-3 (PRN 12)",
        "group": "gps-ops",
        "lat": -37.18220970092,
        "lon": -170.45409559720756,
        "alt_km": 20348.90361928706,
        "timestamp": "2025-12-06T09:34:17.172596+00:00",
        "meta_object_name": "GPS BIIRM-3 (PRN 12)",
        "meta_object_id": "2006-052A",
        "meta_epoch": "2025-12-04T23:15:57.837888",
        "meta_mean_motion": 2.00572904,
        "meta_eccentricity": 0.00875961,
        "meta_inclination": 54.9722,
        "meta_ra_of_asc_node": 221.7066,
        "meta_arg_of_pericenter": 87.3581,
        "meta_mean_anomaly": 273.7369,
        "meta_ephemeris_type": 0,
        "meta_classification_type": "U",
        "meta_norad_cat_id": 29601,
        "meta_element_set_no": 999,
        "meta_rev_at_epoch": 13951,
        "meta_bstar": 0,
        "meta_mean_motion_dot": 5.8e-07,
        "meta_mean_motion_ddot": 0,
        "tle_line1": "1 29601U 06052A   25338.96941942  .00000058  00000+0  00000+0 0  9997",
        "tle_line2": "2 29601  54.9722 221.7066 0087596  87.3581 273.7369  2.00572904139515"
      },
      "geometry": {
        "type": "Point",
        "coordinates": [
          -170.45409559720756,
          -37.18220970092
        ]
      }
    },
    {
      "type": "Feature",
      "properties": {
        "norad_id": 32260,
        "name": "GPS BIIRM-4 (PRN 15)",
        "group": "gps-ops",
        "lat": 53.80288681564322,
        "lon": -175.6795244372089,
        "alt_km": 19744.704049396223,
        "timestamp": "2025-12-06T09:34:17.172608+00:00",
        "meta_object_name": "GPS BIIRM-4 (PRN 15)",
        "meta_object_id": "2007-047A",
        "meta_epoch": "2025-12-05T06:35:49.168896",
        "meta_mean_motion": 2.0056471,
        "meta_eccentricity": 0.01643532,
        "meta_inclination": 53.9502,
        "meta_ra_of_asc_node": 88.0669,
        "meta_arg_of_pericenter": 85.1619,
        "meta_mean_anomaly": 276.6895,
        "meta_ephemeris_type": 0,
        "meta_classification_type": "U",
        "meta_norad_cat_id": 32260,
        "meta_element_set_no": 999,
        "meta_rev_at_epoch": 13292,
        "meta_bstar": 0,
        "meta_mean_motion_dot": -2.6e-07,
        "meta_mean_motion_ddot": 0,
        "tle_line1": "1 32260U 07047A   25339.27487464 -.00000026  00000+0  00000+0 0  9992",
        "tle_line2": "2 32260  53.9502  88.0669 0164353  85.1619 276.6895  2.00564710132923"
      },
      "geometry": {
        "type": "Point",
        "coordinates": [
          -175.6795244372089,
          53.80288681564322
        ]
      }
    },
    {
      "type": "Feature",
      "properties": {
        "norad_id": 32384,
        "name": "GPS BIIRM-5 (PRN 29)",
        "group": "gps-ops",
        "lat": -33.85768484930013,
        "lon": 129.6668728275425,
        "alt_km": 20142.220942416083,
        "timestamp": "2025-12-06T09:34:17.172620+00:00",
        "meta_object_name": "GPS BIIRM-5 (PRN 29)",
        "meta_object_id": "2007-062A",
        "meta_epoch": "2025-12-05T07:59:29.428800",
        "meta_mean_motion": 2.00576795,
        "meta_eccentricity": 0.00322138,
        "meta_inclination": 55.1888,
        "meta_ra_of_asc_node": 281.943,
        "meta_arg_of_pericenter": 162.7364,
        "meta_mean_anomaly": 9.9869,
        "meta_ephemeris_type": 0,
        "meta_classification_type": "U",
        "meta_norad_cat_id": 32384,
        "meta_element_set_no": 999,
        "meta_rev_at_epoch": 13162,
        "meta_bstar": 0,
        "meta_mean_motion_dot": -3.8e-07,
        "meta_mean_motion_ddot": 0,
        "tle_line1": "1 32384U 07062A   25339.33297950 -.00000038  00000+0  00000+0 0  9995",
        "tle_line2": "2 32384  55.1888 281.9430 0032213 162.7364   9.9869  2.00576795131629"
      },
      "geometry": {
        "type": "Point",
        "coordinates": [
          129.6668728275425,
          -33.85768484930013
        ]
      }
    },
    {
      "type": "Feature",
      "properties": {
        "norad_id": 32711,
        "name": "GPS BIIRM-6 (PRN 07)",
        "group": "gps-ops",
        "lat": 28.032751274788552,
        "lon": -44.75063759087923,
        "alt_km": 20263.475288949114,
        "timestamp": "2025-12-06T09:34:17.172631+00:00",
        "meta_object_name": "GPS BIIRM-6 (PRN 07)",
        "meta_object_id": "2008-012A",
        "meta_epoch": "2025-12-05T16:39:04.632768",
        "meta_mean_motion": 2.00565224,
        "meta_eccentricity": 0.02021668,
        "meta_inclination": 54.476,
        "meta_ra_of_asc_node": 157.6542,
        "meta_arg_of_pericenter": 244.8708,
        "meta_mean_anomaly": 113.0379,
        "meta_ephemeris_type": 0,
        "meta_classification_type": "U",
        "meta_norad_cat_id": 32711,
        "meta_element_set_no": 999,
        "meta_rev_at_epoch": 12987,
        "meta_bstar": 0,
        "meta_mean_motion_dot": 7e-07,
        "meta_mean_motion_ddot": 0,
        "tle_line1": "1 32711U 08012A   25339.69380362  .00000070  00000+0  00000+0 0  9999",
        "tle_line2": "2 32711  54.4760 157.6542 0202166 244.8708 113.0379  2.00565224129879"
      },
      "geometry": {
        "type": "Point",
        "coordinates": [
          -44.75063759087923,
          28.032751274788552
        ]
      }
    },
    {
      "type": "Feature",
      "properties": {
        "norad_id": 35752,
        "name": "GPS BIIRM-8 (PRN 05)",
        "group": "gps-ops",
        "lat": 10.276973921480302,
        "lon": -151.9466593100262,
        "alt_km": 20169.28232791395,
        "timestamp": "2025-12-06T09:34:17.172643+00:00",
        "meta_object_name": "GPS BIIRM-8 (PRN 05)",
        "meta_object_id": "2009-043A",
        "meta_epoch": "2025-12-01T04:42:32.815296",
        "meta_mean_motion": 2.00566259,
        "meta_eccentricity": 0.00521242,
        "meta_inclination": 56.0822,
        "meta_ra_of_asc_node": 35.2386,
        "meta_arg_of_pericenter": 82.0997,
        "meta_mean_anomaly": 288.3285,
        "meta_ephemeris_type": 0,
        "meta_classification_type": "U",
        "meta_norad_cat_id": 35752,
        "meta_element_set_no": 999,
        "meta_rev_at_epoch": 11939,
        "meta_bstar": 0,
        "meta_mean_motion_dot": -6.6e-07,
        "meta_mean_motion_ddot": 0,
        "tle_line1": "1 35752U 09043A   25335.19621314 -.00000066  00000+0  00000+0 0  9994",
        "tle_line2": "2 35752  56.0822  35.2386 0052124  82.0997 288.3285  2.00566259119397"
      },
      "geometry": {
        "type": "Point",
        "coordinates": [
          -151.9466593100262,
          10.276973921480302
        ]
      }
    },
    {
      "type": "Feature",
      "properties": {
        "norad_id": 36585,
        "name": "GPS BIIF-1  (PRN 25)",
        "group": "gps-ops",
        "lat": -51.79480302638381,
        "lon": 150.4296865167947,
        "alt_km": 20444.46574819224,
        "timestamp": "2025-12-06T09:34:17.172654+00:00",
        "meta_object_name": "GPS BIIF-1  (PRN 25)",
        "meta_object_id": "2010-022A",
        "meta_epoch": "2025-12-05T06:08:38.756832",
        "meta_mean_motion": 2.00552724,
        "meta_eccentricity": 0.01258019,
        "meta_inclination": 54.3015,
        "meta_ra_of_asc_node": 216.3758,
        "meta_arg_of_pericenter": 64.9927,
        "meta_mean_anomaly": 115.5079,
        "meta_ephemeris_type": 0,
        "meta_classification_type": "U",
        "meta_norad_cat_id": 36585,
        "meta_element_set_no": 999,
        "meta_rev_at_epoch": 11370,
        "meta_bstar": 0,
        "meta_mean_motion_dot": 6.2e-07,
        "meta_mean_motion_ddot": 0,
        "tle_line1": "1 36585U 10022A   25339.25600413  .00000062  00000+0  00000+0 0  9991",
        "tle_line2": "2 36585  54.3015 216.3758 0125801  64.9927 115.5079  2.00552724113700"
      },
      "geometry": {
        "type": "Point",
        "coordinates": [
          150.4296865167947,
          -51.79480302638381
        ]
      }
    }
  ]
}